     2.10           G: GLONASS NAV DATA                     RINEX VERSION / TYPE
teqc  2015Jun23                         20210724 01:25:50UTCPGM / RUN BY / DATE
Linux 2.4.21-27.ELsmp|Opteron|gcc -static|Linux x86_64|=+   COMMENT
  2021     6    30    2.607703208923D-08                    CORR TO SYSTEM TIME
                                                            END OF HEADER
10 21  7  1  6 15  0.0-7.241591811180D-05-0.000000000000D+00 2.262000000000D+04
    1.587178027344D+04 1.082652091980D+00 9.313225746155D-10 0.000000000000D+00
    1.396843115234D+04 1.636495590210D+00-0.000000000000D+00-7.000000000000D+00
    1.431553369141D+04-2.790221214294D+00-9.313225746155D-10 0.000000000000D+00
 6 21  7  1  6 15  0.0 2.006813883781D-04 0.000000000000D+00 2.271000000000D+04
    1.911658691406D+03-1.280610084534D+00-0.000000000000D+00 0.000000000000D+00
    1.593906201172D+04 2.392881393433D+00-9.313225746155D-10-4.000000000000D+00
   -1.983667724609D+04 1.797863006592D+00 1.862645149231D-09 0.000000000000D+00
10 21  7  1  6 45  0.0-7.241498678923D-05 0.000000000000D+00 2.340000000000D+04
    1.764932617188D+04 8.487682342529D-01 9.313225746155D-10 0.000000000000D+00
    1.622407275391D+04 8.674764633179D-01-0.000000000000D+00-7.000000000000D+00
    8.806134277344D+03-3.291662216187D+00-0.000000000000D+00 0.000000000000D+00
 4 21  7  1  6 45  0.0 9.375996887684D-05 1.818989403546D-12 2.340000000000D+04
   -1.417373681641D+04 1.086222648621D+00-1.862645149231D-09 0.000000000000D+00
    1.150218164062D+04-2.185837745667D+00 9.313225746155D-10 6.000000000000D+00
    1.785001220703D+04 2.274294853210D+00-9.313225746155D-10 0.000000000000D+00
 5 21  7  1  6 45  0.0 7.453653961420D-05 9.094947017729D-13 2.340000000000D+04
   -1.139811962891D+04 3.184051513672D-01-1.862645149231D-09 0.000000000000D+00
    2.267058203125D+04-2.655477523804D-01 0.000000000000D+00 1.000000000000D+00
    2.727649902344D+03 3.553516387939D+00 0.000000000000D+00 0.000000000000D+00
 6 21  7  1  6 45  0.0 2.006832510233D-04 0.000000000000D+00 2.340000000000D+04
    1.133779296875D+02-7.224349975586D-01-9.313225746155D-10 0.000000000000D+00
    1.998019091797D+04 2.050098419189D+00-0.000000000000D+00-4.000000000000D+00
   -1.587646777344D+04 2.573826789856D+00 1.862645149231D-09 0.000000000000D+00
 9 21  7  1  6 45  0.0 6.612390279770D-07 1.818989403546D-12 2.340000000000D+04
    1.156661328125D+04-5.541982650757D-01-0.000000000000D+00 0.000000000000D+00
    2.136950732422D+04-8.943347930908D-01-9.313225746155D-10-2.000000000000D+00
   -7.616796386719D+03-3.348895072937D+00 1.862645149231D-09 0.000000000000D+00
16 21  7  1  6 45  0.0-1.720711588860D-05 0.000000000000D+00 2.340000000000D+04
   -3.430180664062D+02-1.654099464417D+00-9.313225746155D-10 0.000000000000D+00
    1.554384326172D+04-2.218877792358D+00-9.313225746155D-10-1.000000000000D+00
   -2.027972851562D+04-1.662527084351D+00 1.862645149231D-09 0.000000000000D+00
 4 21  7  1  7 15  0.0 9.376369416714D-05 1.818989403546D-12 2.520000000000D+04
   -1.237560839844D+04 8.763189315796D-01-9.313225746155D-10 0.000000000000D+00
    7.018709472656D+03-2.761445999146D+00 9.313225746155D-10 6.000000000000D+00
    2.120292871094D+04 1.427116394043D+00-9.313225746155D-10 0.000000000000D+00
 6 21  7  1  7 15  0.0 2.006841823459D-04 0.000000000000D+00 2.520000000000D+04
   -7.381938476562D+02-2.454652786255D-01-9.313225746155D-10 0.000000000000D+00
    2.316215576172D+04 1.446625709534D+00-0.000000000000D+00-4.000000000000D+00
   -1.069045361328D+04 3.151050567627D+00 1.862645149231D-09 0.000000000000D+00
 5 21  7  1  7 15  0.0 7.453840225935D-05 9.094947017729D-13 2.520000000000D+04
   -1.061751513672D+04 5.068368911743D-01-1.862645149231D-09 0.000000000000D+00
    2.142086718750D+04-1.124227523804D+00 9.313225746155D-10 1.000000000000D+00
    8.936165527344D+03 3.300122261047D+00-0.000000000000D+00 0.000000000000D+00
 9 21  7  1  7 15  0.0 6.640329957008D-07 1.818989403546D-12 2.520000000000D+04
    9.977153808594D+03-1.223033905029D+00-0.000000000000D+00 0.000000000000D+00
    1.930912841797D+04-1.353933334351D+00-9.313225746155D-10-2.000000000000D+00
   -1.327053271484D+04-2.892043113708D+00 1.862645149231D-09 0.000000000000D+00
10 21  7  1  7 15  0.0-7.241498678923D-05 0.000000000000D+00 2.520000000000D+04
    1.877748242188D+04 3.665857315063D-01 0.000000000000D+00 0.000000000000D+00
    1.711707617188D+04 1.409597396851D-01-9.313225746155D-10-7.000000000000D+00
    2.618219238281D+03-3.539305686951D+00 0.000000000000D+00 0.000000000000D+00
16 21  7  1  7 15  0.0-1.720711588860D-05-0.000000000000D+00 2.520000000000D+04
   -3.803181152344D+03-2.168900489807D+00-9.313225746155D-10 0.000000000000D+00
    1.155608691406D+04-2.167261123657D+00-0.000000000000D+00-1.000000000000D+00
   -2.245362011719D+04-7.370157241821D-01 1.862645149231D-09 0.000000000000D+00
 7 21  7  1  7 15  0.0-4.216376692057D-05-0.000000000000D+00 2.643000000000D+04
    7.686959472656D+03-7.772006988525D-01-0.000000000000D+00 0.000000000000D+00
    1.072972998047D+04 2.891801834106D+00-9.313225746155D-10 5.000000000000D+00
   -2.179590087891D+04 1.143362998962D+00 2.793967723846D-09 0.000000000000D+00
10 21  7  1  7 45  0.0-7.241498678923D-05 0.000000000000D+00 2.700000000000D+04
    1.885152392578D+04-3.102588653564D-01 0.000000000000D+00 0.000000000000D+00
    1.681888916016D+04-4.408941268921D-01-9.313225746155D-10-7.000000000000D+00
   -3.771365722656D+03-3.514315605164D+00 9.313225746155D-10 0.000000000000D+00
 6 21  7  1  7 45  0.0 2.006860449910D-04 0.000000000000D+00 2.700000000000D+04
   -8.727924804688D+02 6.178951263428D-02-1.862645149231D-09 0.000000000000D+00
    2.507273095703D+04 6.520090103149D-01 0.000000000000D+00-4.000000000000D+00
   -4.679022949219D+03 3.485010147095D+00 9.313225746155D-10 0.000000000000D+00
 5 21  7  1  7 45  0.0 7.454026490450D-05 9.094947017729D-13 2.700000000000D+04
   -9.724849609375D+03 4.445676803589D-01-9.313225746155D-10 0.000000000000D+00
    1.865445849609D+04-1.931275367737D+00 1.862645149231D-09 1.000000000000D+00
    1.445491503906D+04 2.792097091675D+00-0.000000000000D+00 0.000000000000D+00
 7 21  7  1  7 45  0.0-4.216376692057D-05-0.000000000000D+00 2.700000000000D+04
    6.731063964844D+03-2.929897308350D-01-9.313225746155D-10 0.000000000000D+00
    1.570176074219D+04 2.583496093750D+00-0.000000000000D+00 5.000000000000D+00
   -1.891966796875D+04 2.031481742859D+00 1.862645149231D-09 0.000000000000D+00
 9 21  7  1  7 45  0.0 6.668269634247D-07 1.818989403546D-12 2.700000000000D+04
    7.156288085938D+03-1.903983116150D+00-9.313225746155D-10 0.000000000000D+00
    1.665292138672D+04-1.552420616150D+00-0.000000000000D+00-2.000000000000D+00
   -1.789309667969D+04-2.210692405701D+00 1.862645149231D-09 0.000000000000D+00
16 21  7  1  7 45  0.0-1.720711588860D-05-0.000000000000D+00 2.700000000000D+04
   -8.044450683594D+03-2.506867408752D+00-9.313225746155D-10 0.000000000000D+00
    7.887895996094D+03-1.873270988464D+00-0.000000000000D+00-1.000000000000D+00
   -2.289768652344D+04 2.471551895142D-01 1.862645149231D-09 0.000000000000D+00
20 21  7  1  7 45  0.0-5.177035927773D-05-0.000000000000D+00 2.805000000000D+04
   -6.754481933594D+03-2.713923454285D+00-9.313225746155D-10 0.000000000000D+00
    1.238850781250D+04 1.070075988770D+00 1.862645149231D-09 2.000000000000D+00
    2.126000341797D+04-1.482056617737D+00-9.313225746155D-10 0.000000000000D+00
10 21  7  1  8 15  0.0-7.241405546665D-05 0.000000000000D+00 2.880000000000D+04
    1.759652099609D+04-1.093109130859D+00-0.000000000000D+00 0.000000000000D+00
    1.566221630859D+04-8.034906387329D-01-9.313225746155D-10-7.000000000000D+00
   -9.870499023438D+03-3.218656539917D+00 1.862645149231D-09 0.000000000000D+00
 6 21  7  1  8 15  0.0 2.006879076362D-04 0.000000000000D+00 2.880000000000D+04
   -6.519375000000D+02 1.434965133667D-01-9.313225746155D-10 0.000000000000D+00
    2.545450732422D+04-2.335748672485D-01 9.313225746155D-10-4.000000000000D+00
    1.693711914062D+03 3.549884796143D+00 9.313225746155D-10 0.000000000000D+00
 5 21  7  1  8 15  0.0 7.454119622707D-05 9.094947017729D-13 2.880000000000D+04
   -9.149053222656D+03 1.636686325073D-01-9.313225746155D-10 0.000000000000D+00
    1.456610253906D+04-2.576077461243D+00 1.862645149231D-09 1.000000000000D+00
    1.885816503906D+04 2.068710327148D+00-9.313225746155D-10 0.000000000000D+00
 7 21  7  1  8 15  0.0-4.216376692057D-05 0.000000000000D+00 2.880000000000D+04
    6.572375488281D+03 9.219837188721D-02-9.313225746155D-10 0.000000000000D+00
    1.986689892578D+04 2.004240989685D+00 0.000000000000D+00 5.000000000000D+00
   -1.457781445312D+04 2.761281013489D+00 1.862645149231D-09 0.000000000000D+00
 9 21  7  1  8 15  0.0 6.696209311485D-07 1.818989403546D-12 2.880000000000D+04
    3.182138671875D+03-2.486461639404D+00-9.313225746155D-10 0.000000000000D+00
    1.387849365234D+04-1.488931655884D+00-0.000000000000D+00-2.000000000000D+00
   -2.112609716797D+04-1.358240127563D+00 1.862645149231D-09 0.000000000000D+00
20 21  7  1  8 15  0.0-5.176849663258D-05-0.000000000000D+00 2.880000000000D+04
   -1.111663574219D+04-2.100340843201D+00-9.313225746155D-10 0.000000000000D+00
    1.451628417969D+04 1.255298614502D+00 1.862645149231D-09 2.000000000000D+00
    1.780590332031D+04-2.330873489380D+00-9.313225746155D-10 0.000000000000D+00
19 21  7  1  8 15  0.0-1.498274505138D-04-9.094947017729D-13 2.895000000000D+04
   -2.279258740234D+04 1.614456176758D-01-1.862645149231D-09 0.000000000000D+00
    1.144043017578D+04 2.038698196411D-01 1.862645149231D-09 3.000000000000D+00
   -3.807407226562D+02-3.612695693970D+00 0.000000000000D+00 0.000000000000D+00
10 21  7  1  8 45  0.0-7.241405546665D-05 0.000000000000D+00 3.060000000000D+04
    1.491840283203D+04-1.872391700745D+00-9.313225746155D-10 0.000000000000D+00
    1.407992529297D+04-9.116029739380D-01-0.000000000000D+00-7.000000000000D+00
   -1.520930517578D+04-2.674927711487D+00 1.862645149231D-09 0.000000000000D+00
